JAM-E JAM 1             
1 67757U 26028B   26170.61453200  .00000150  00000+0  00000+0 0  9991
2 67757   0.2541 303.2318 0001101 292.6751 287.1607  1.00277035  1143
ECHOSTAR 25             
1 68126U 26045A   26170.87120182  .00000000  00000+0  00000+0 0  9993
2 68126   0.0193  19.5373 0001942  70.5185  21.6665  1.00268648  1022
