OBJECT_NAME,OBJECT_ID,EPOCH,MEAN_MOTION,ECCENTRICITY,INCLINATION,RA_OF_ASC_NODE,ARG_OF_PERICENTER,MEAN_ANOMALY,EPHEMERIS_TYPE,CLASSIFICATION_TYPE,NORAD_CAT_ID,ELEMENT_SET_NO,REV_AT_EPOCH,BSTAR,MEAN_MOTION_DOT,MEAN_MOTION_DDOT
JAM-E JAM 1,2026-028B,2026-06-19T14:44:55.564800,1.00277035,.00011012,0.2541,303.2318,292.6751,287.1607,0,U,67757,999,114,0,.15E-5,0
ECHOSTAR 25,2026-045A,2026-06-19T20:54:31.837248,1.00268648,.00019423,0.0193,19.5373,70.5185,21.6665,0,U,68126,999,102,0,0,0
